GPS BIIR-2  (PRN 13)    
1 24876U 97035A   23161.34224732  .00000082  00000+0  00000+0 0  9999
2 24876  55.5729 141.7031 0068509  50.8279 309.7639  2.00563913189833
GPS BIIR-4  (PRN 20)    
1 26360U 00025A   23161.70810154 -.00000071  00000+0  00000+0 0  9990
2 26360  54.3585  64.1143 0041070 198.0898 152.5600  2.00576752169158
GPS BIIR-8  (PRN 16)    
1 27663U 03005A   23161.79284841 -.00000039  00000+0  00000+0 0  9999
2 27663  55.2889 258.8157 0131461  44.5574 348.6918  2.00570853149209
GPS BIIR-9  (PRN 21)    
1 27704U 03010A   23161.90561684 -.00000090  00000+0  00000+0 0  9994
2 27704  55.1086   8.8160 0248434 316.6983  15.1768  2.00570870147998
GPS BIIR-11 (PRN 19)    
1 28190U 04009A   23161.52543880 -.00000066  00000+0  00000+0 0  9992
2 28190  55.7592 319.8745 0092804 133.9504 222.9378  2.00569370140820
GPS BIIR-13 (PRN 02)    
1 28474U 04045A   23159.96021758 -.00000084  00000+0  00000+0 0  9997
2 28474  55.4341   9.1869 0175187 286.6858  72.2917  1.99885382136285
GPS BIIRM-1 (PRN 17)    
1 28874U 05038A   23161.47480403 -.00000064  00000+0  00000+0 0  9997
2 28874  55.8127 317.3255 0137061 279.2514  62.3511  2.00551742129717
GPS BIIRM-2 (PRN 31)    
1 29486U 06042A   23161.75399660  .00000066  00000+0  00000+0 0  9999
2 29486  54.6871 195.0485 0102013  29.8926  53.5132  2.00574926122286
GPS BIIRM-3 (PRN 12)    
1 29601U 06052A   23161.55885571 -.00000036  00000+0  00000+0 0  9996
2 29601  55.3071 257.7795 0085423  78.6513 282.3419  2.00572902121296
GPS BIIRM-4 (PRN 15)    
1 32260U 07047A   23161.36646543  .00000055  00000+0  00000+0 0  9999
2 32260  53.4340 125.7052 0147584  68.5798 292.9605  2.00556009114699
GPS BIIRM-5 (PRN 29)    
1 32384U 07062A   23159.59987719 -.00000052  00000+0  00000+0 0  9996
2 32384  55.9438 318.2083 0024276 142.5520 151.9991  2.00553922113414
GPS BIIRM-6 (PRN 07)    
1 32711U 08012A   23161.28162727  .00000064  00000+0  00000+0 0  9991
2 32711  54.4534 193.9183 0175646 234.9361 123.4622  2.00555035111639
GPS BIIRM-8 (PRN 05)    
1 35752U 09043A   23161.74325534 -.00000060  00000+0  00000+0 0  9999
2 35752  55.3609  71.1414 0057807  65.5233 283.6637  2.00562788101242
GPS BIIF-1  (PRN 25)    
1 36585U 10022A   23161.58242846 -.00000032  00000+0  00000+0 0  9998
2 36585  54.6025 253.0529 0108825  59.6960 289.7336  2.00557435 95470
GPS BIIF-2  (PRN 01)    
1 37753U 11036A   23161.93355662 -.00000090  00000+0  00000+0 0  9996
2 37753  56.7260  14.7756 0127007  55.1022 272.0772  2.00567724 87167
GPS BIIF-3  (PRN 24)    
1 38833U 12053A   23161.46355074  .00000070  00000+0  00000+0 0  9998
2 38833  53.5136 188.7017 0137385  50.7108 310.5540  2.00565812 77326
GPS BIIF-4  (PRN 27)    
1 39166U 13023A   23161.32381906 -.00000063  00000+0  00000+0 0  9997
2 39166  55.4293 313.5621 0114232  41.5378 319.3156  2.00564450 73764
GPS BIIF-5  (PRN 30)    
1 39533U 14008A   23161.32149866  .00000062  00000+0  00000+0 0  9994
2 39533  53.6014 194.2544 0066605 214.0707 145.5588  2.00573442 67564
GPS BIIF-6  (PRN 06)    
1 39741U 14026A   23161.10317913 -.00000087  00000+0  00000+0 0  9999
2 39741  56.6804  14.3308 0028987 314.1154  45.6902  2.00563306 66415
GPS BIIF-7  (PRN 09)    
1 40105U 14045A   23161.69268299  .00000068  00000+0  00000+0 0  9990
2 40105  54.7891 132.4942 0021743 113.6974 246.5092  2.00571728 63963
GPS BIIF-8  (PRN 03)    
1 40294U 14068A   23161.06969980 -.00000047  00000+0  00000+0 0  9998
2 40294  56.1038  73.8469 0047083  57.9807 302.4876  2.00565899 63080
GPS BIIF-9  (PRN 26)    
1 40534U 15013A   23161.70046549 -.00000029  00000+0  00000+0 0  9994
2 40534  53.5010 249.8427 0078121  25.1075 335.3157  2.00559858 59718
GPS BIIF-10 (PRN 08)    
1 40730U 15033A   23161.86136443 -.00000068  00000+0  00000+0 0  9997
2 40730  54.9191 312.1962 0084157  14.0029 346.2186  2.00559692 57886
GPS BIIF-11 (PRN 10)    
1 41019U 15062A   23161.41723537 -.00000051  00000+0  00000+0 0  9999
2 41019  56.0887  73.6818 0086683 221.7830 137.5643  2.00562069 55715
GPS BIIF-12 (PRN 32)    
1 41328U 16007A   23161.50666990  .00000070  00000+0  00000+0 0  9991
2 41328  54.9960 133.2593 0071293 234.9734 124.3351  2.00553952 53720
GPS BIII-1  (PRN 04)    
1 43873U 18109A   23161.40723466  .00000074  00000+0  00000+0 0  9998
2 43873  55.1729 135.7599 0024521 194.7627 345.1254  2.00564673 32951
GPS BIII-2  (PRN 18)    
1 44506U 19056A   23161.02082675 -.00000089  00000+0  00000+0 0  9999
2 44506  55.8026  14.8562 0032938 182.7086 338.9169  2.00564067 27941
GPS BIII-3  (PRN 23)    
1 45854U 20041A   23161.52693084 -.00000055  00000+0  00000+0 0  9992
2 45854  55.8100  72.1148 0032464 186.4289 283.9517  2.00565198 21922
GPS BIII-4  (PRN 14)    
1 46826U 20078A   23161.59468716 -.00000035  00000+0  00000+0 0  9999
2 46826  54.3527 255.5502 0032797 191.7304 303.1199  2.00562572 19398
GPS BIII-5  (PRN 11)    
1 48859U 21054A   23161.61259330 -.00000092  00000+0  00000+0 0  9998
2 48859  55.3177  16.6594 0009643 207.3551 120.8967  2.00553973 14631
GPS BIII-6  (PRN 28)    
1 55268U 23009A   23161.66362781  .00000071  00000+0  00000+0 0  9998
2 55268  55.0928 191.7732 0004405 101.9212 307.8768  2.00561031  3130
